NORAD_CAT_ID,OBJECT_NAME,OBJECT_TYPE,EPOCH,MEAN_MOTION,ECCENTRICITY,INCLINATION,RA_OF_ASC_NODE,ARG_OF_PERICENTER,MEAN_ANOMALY,BSTAR,MEAN_MOTION_DOT,MEAN_MOTION_DDOT,TLE_LINE0,TLE_LINE1,TLE_LINE2,SEMIMAJOR_AXIS,PERIOD,APOGEE,PERIGEE,DECAYED
51105.0,STARLINK-3350,PAYLOAD,2024-08-02 05:04:23,15.08833902,0.0001323,53.2175,32.9511,98.6521,261.4621,0.00010178,1.332e-05,0.0,0 STARLINK-3350,1 51105U 22005B   24215.21137858  .00001332  00000-0  10178-3 0  9999,2 51105  53.2175  32.9511 0001323  98.6521 261.4621 15.08833902141757,6917.899,95.438,540.679,538.849,0.0
51105.0,STARLINK-3350,PAYLOAD,2024-08-02 11:25:56,15.08823311,0.0001421,53.2188,31.7602,103.4401,256.6749,4.5369e-05,4.34e-06,0.0,0 STARLINK-3350,1 51105U 22005B   24215.47634926  .00000434  00000-0  45369-4 0  9998,2 51105  53.2188  31.7602 0001421 103.4401 256.6749 15.08823311141794,6917.931,95.439,540.779,538.813,0.0
51105.0,STARLINK-3350,PAYLOAD,2024-08-02 20:58:14,15.08839338,0.0001244,53.2173,29.9759,103.5656,256.5474,9.7788e-05,1.269e-05,0.0,0 STARLINK-3350,1 51105U 22005B   24215.87377831  .00001269  00000-0  97788-4 0  9990,2 51105  53.2173  29.9759 0001244 103.5656 256.5474 15.08839338141853,6917.882,95.438,540.608,538.887,0.0
51105.0,STARLINK-3350,PAYLOAD,2024-08-03 11:16:42,15.08839805,0.0001489,53.2181,27.2984,87.2309,272.8853,9.5792e-05,1.237e-05,0.0,0 STARLINK-3350,1 51105U 22005B   24216.46994195  .00001237  00000-0  95792-4 0  9992,2 51105  53.2181  27.2984 0001489  87.2309 272.8853 15.08839805140835,6917.881,95.438,540.776,538.716,0.0
51105.0,STARLINK-3350,PAYLOAD,2024-08-03 20:49:01,15.0885586,0.0001349,53.2166,25.512,91.398,268.7167,0.00042292,6.452e-05,0.0,0 STARLINK-3350,1 51105U 22005B   24216.86737399  .00006452  00000-0  42292-3 0  9997,2 51105  53.2166  25.5120 0001349  91.3980 268.7167 15.08855860140894,6917.832,95.437,540.63,538.764,0.0
51105.0,STARLINK-3350,PAYLOAD,2024-08-04 11:07:29,15.08846177,0.000163,53.2175,22.8381,92.68,267.4379,0.00033451,5.041e-05,0.0,0 STARLINK-3350,1 51105U 22005B   24217.46353945  .00005041  00000-0  33451-3 0  9995,2 51105  53.2175  22.8381 0001630  92.6800 267.4379 15.08846177142097,6917.862,95.437,540.854,538.599,0.0
51105.0,STARLINK-3350,PAYLOAD,2024-08-04 17:29:01,15.08858586,0.0001222,53.217,21.6478,95.0466,265.0665,0.00050349,7.738e-05,0.0,0 STARLINK-3350,1 51105U 22005B   24217.72849315  .00007738  00000-0  50349-3 0  9995,2 51105  53.2170  21.6478 0001222  95.0466 265.0665 15.08858586142132,6917.824,95.436,540.534,538.843,0.0
51105.0,STARLINK-3350,PAYLOAD,2024-08-05 04:36:43,15.08855039,0.0001489,53.2165,19.5638,103.7935,256.3223,0.00026747,3.973e-05,0.0,0 STARLINK-3350,1 51105U 22005B   24218.19216995  .00003973  00000-0  26747-3 0  9991,2 51105  53.2165  19.5638 0001489 103.7935 256.3223 15.08855039142204,6917.834,95.437,540.729,538.669,0.0
51105.0,STARLINK-3350,PAYLOAD,2024-08-05 17:19:48,15.08850251,0.0001735,53.2174,17.1869,94.4185,265.7006,0.00011584,1.556e-05,0.0,0 STARLINK-3350,1 51105U 22005B   24218.72209055  .00001556  00000-0  11584-3 0  9997,2 51105  53.2174  17.1869 0001735  94.4185 265.7006 15.08850251142283,6917.849,95.437,540.914,538.514,0.0
51105.0,STARLINK-3350,PAYLOAD,2024-08-06 13:59:50,15.08831457,0.0001524,53.2174,13.3214,102.2698,257.8465,-0.00013291,-2.402e-05,0.0,0 STARLINK-3350,1 51105U 22005B   24219.58321912 -.00002402  00000-0 -13291-3 0  9999,2 51105  53.2174  13.3214 0001524 102.2698 257.8465 15.08831457141308,6917.907,95.438,540.826,538.717,0.0
51105.0,STARLINK-3350,PAYLOAD,2024-08-06 20:21:22,15.08837358,0.000154,53.2187,12.1332,101.4999,258.6166,-4.6437e-05,-1.027e-05,0.0,0 STARLINK-3350,1 51105U 22005B   24219.84818152 -.00001027  00000-0 -46437-4 0  9996,2 51105  53.2187  12.1332 0001540 101.4999 258.6166 15.08837358142453,6917.888,95.438,540.819,538.688,0.0
51105.0,STARLINK-3350,PAYLOAD,2024-08-07 10:39:51,15.08835076,0.0001605,53.219,9.4573,95.4547,264.6628,4.6603e-05,4.54e-06,0.0,0 STARLINK-3350,1 51105U 22005B   24220.44434311  .00000454  00000-0  46603-4 0  9991,2 51105  53.2190   9.4573 0001605  95.4547 264.6628 15.08835076141438,6917.895,95.438,540.871,538.65,0.0
51105.0,STARLINK-3350,PAYLOAD,2024-08-07 17:01:22,15.08850086,0.000155,53.2187,8.2679,92.5533,267.5636,0.00011479,1.54e-05,0.0,0 STARLINK-3350,1 51105U 22005B   24220.70929315  .00001540  00000-0  11479-3 0  9992,2 51105  53.2187   8.2679 0001550  92.5533 267.5636 15.08850086142586,6917.85,95.437,540.787,538.642,0.0
51105.0,STARLINK-3350,PAYLOAD,2024-08-08 13:41:24,15.08834474,0.0001628,53.2185,4.4019,107.9636,252.1534,9.4372e-05,1.214e-05,0.0,0 STARLINK-3350,1 51105U 22005B   24221.57042645  .00001214  00000-0  94372-4 0  9992,2 51105  53.2185   4.4019 0001628 107.9636 252.1534 15.08834474141603,6917.897,95.438,540.889,538.636,0.0
51105.0,STARLINK-3350,PAYLOAD,2024-08-08 16:52:10,15.08840794,0.0001532,53.2184,3.8075,105.9095,254.2066,0.00018933,2.727e-05,0.0,0 STARLINK-3350,1 51105U 22005B   24221.70290413  .00002727  00000-0  18933-3 0  9993,2 51105  53.2184   3.8075 0001532 105.9095 254.2066 15.08840794142738,6917.878,95.438,540.803,538.683,0.0
51105.0,STARLINK-3350,PAYLOAD,2024-08-09 13:32:11,15.08850389,0.0001644,53.2179,359.9407,98.3742,261.7436,8.0117e-05,9.88e-06,0.0,0 STARLINK-3350,1 51105U 22005B   24222.56401749  .00000988  00000-0  80117-4 0  9995,2 51105  53.2179 359.9407 0001644  98.3742 261.7436 15.08850389141750,6917.849,95.437,540.851,538.576,0.0
51105.0,STARLINK-3350,PAYLOAD,2024-08-09 18:18:20,15.08858892,0.0001363,53.2182,359.0485,87.0956,273.0192,0.00022028,3.221e-05,0.0,0 STARLINK-3350,1 51105U 22005B   24222.76273230  .00003221  00000-0  22028-3 0  9998,2 51105  53.2182 359.0485 0001363  87.0956 273.0192 15.08858892142899,6917.823,95.436,540.631,538.745,0.0
51105.0,STARLINK-3350,PAYLOAD,2024-08-10 13:22:58,15.08843659,0.0001423,53.2181,355.4815,114.055,246.0592,5.5536e-05,5.96e-06,0.0,0 STARLINK-3350,1 51105U 22005B   24223.55762330  .00000596  00000-0  55536-4 0  9993,2 51105  53.2181 355.4815 0001423 114.0550 246.0592 15.08843659143017,6917.869,95.437,540.719,538.75,0.0
51105.0,STARLINK-3350,PAYLOAD,2024-08-10 18:09:08,15.08833735,0.0001164,53.2177,354.595,71.3623,288.7495,-6.0484e-05,-1.25e-05,0.0,0 STARLINK-3350,1 51105U 22005B   24223.75635054 -.00001250  00000-0 -60484-4 0  9995,2 51105  53.2177 354.5950 0001164  71.3623 288.7495 15.08833735143042,6917.9,95.438,540.57,538.959,0.0
51105.0,STARLINK-3350,PAYLOAD,2024-08-11 17:59:54,15.08857597,0.000169,53.218,350.1286,83.6703,276.4482,0.00028628,4.273e-05,0.0,0 STARLINK-3350,1 51105U 22005B   24224.74994177  .00004273  00000-0  28628-3 0  9998,2 51105  53.2180 350.1286 0001690  83.6703 276.4482 15.08857597143197,6917.827,95.436,540.861,538.522,0.0
51105.0,STARLINK-3350,PAYLOAD,2024-08-12 01:56:50,15.0884867,0.0001688,53.2173,348.6421,80.4758,279.6425,9.6683e-05,1.251e-05,0.0,0 STARLINK-3350,1 51105U 22005B   24225.08114448  .00001251  00000-0  96683-4 0  9991,2 51105  53.2173 348.6421 0001688  80.4758 279.6425 15.08848670143244,6917.854,95.437,540.887,538.551,0.0
51105.0,STARLINK-3350,PAYLOAD,2024-08-12 08:18:23,15.08839728,0.0001338,53.2166,347.458,74.2899,285.8241,0.00019587,2.831e-05,0.0,0 STARLINK-3350,1 51105U 22005B   24225.34610992  .00002831  00000-0  19587-3 0  9997,2 51105  53.2166 347.4580 0001338  74.2899 285.8241 15.08839728143281,6917.881,95.438,540.672,538.821,0.0
51105.0,STARLINK-3350,PAYLOAD,2024-08-12 14:39:54,15.08869435,0.0001312,53.2166,346.2683,82.855,277.2591,0.00056638,8.745e-05,0.0,0 STARLINK-3350,1 51105U 22005B   24225.61105230  .00008745  00000-0  56638-3 0  9999,2 51105  53.2166 346.2683 0001312  82.8550 277.2591 15.08869435142216,6917.79,95.436,540.563,538.748,0.0
51105.0,STARLINK-3350,PAYLOAD,2024-08-12 19:26:02,15.08900401,8.55e-05,53.2161,345.3754,82.2371,277.8718,0.00095003,0.00014889,0.0,0 STARLINK-3350,1 51105U 22005B   24225.80975148  .00014889  00000-0  95003-3 0  9998,2 51105  53.2161 345.3754 0000855  82.2371 277.8718 15.08900401143358,6917.696,95.434,540.152,538.969,0.0
51105.0,STARLINK-3350,PAYLOAD,2024-08-13 08:09:09,15.08857289,0.0002834,53.208,342.9902,97.3718,262.7596,-2.9496e-05,-7.58e-06,0.0,0 STARLINK-3350,1 51105U 22005B   24226.33968926 -.00000758  00000-0 -29496-4 0  9999,2 51105  53.2080 342.9902 0002834  97.3718 262.7596 15.08857289143438,6917.828,95.436,541.653,537.732,0.0
51105.0,STARLINK-3350,PAYLOAD,2024-08-13 14:30:46,15.08789384,0.0002174,53.2158,341.8016,94.2993,265.8247,-0.00055177,-9.047e-05,0.0,0 STARLINK-3350,1 51105U 22005B   24226.60471062 -.00009047  00000-0 -55177-3 0  9993,2 51105  53.2158 341.8016 0002174  94.2993 265.8247 15.08789384142364,6918.035,95.441,541.404,538.396,0.0
51105.0,STARLINK-3350,PAYLOAD,2024-08-13 19:16:55,15.08778954,0.000204,53.2196,340.9108,95.1486,264.9739,-0.00081297,-0.00013182,0.0,0 STARLINK-3350,1 51105U 22005B   24226.80341780 -.00013182  00000-0 -81297-3 0  9995,2 51105  53.2196 340.9108 0002040  95.1486 264.9739 15.08778954143501,6918.067,95.441,541.343,538.521,0.0
51105.0,STARLINK-3350,PAYLOAD,2024-08-14 12:46:07,15.08845054,0.0001186,53.2177,337.6397,100.06,260.0526,0.00026016,3.856e-05,0.0,0 STARLINK-3350,1 51105U 22005B   24227.53203045  .00003856  00000-0  26016-3 0  9990,2 51105  53.2177 337.6397 0001186 100.0600 260.0526 15.08845054143616,6917.865,95.437,540.55,538.909,0.0
51105.0,STARLINK-3350,PAYLOAD,2024-08-14 14:21:30,15.08849052,0.0001021,53.2178,337.3444,84.0521,276.0588,0.00018134,2.6e-05,0.0,0 STARLINK-3350,1 51105U 22005B   24227.59826392  .00002600  00000-0  18134-3 0  9990,2 51105  53.2178 337.3444 0001021  84.0521 276.0588 15.08849052142513,6917.853,95.437,540.424,539.011,0.0
51105.0,STARLINK-3350,PAYLOAD,2024-08-14 23:53:48,15.08866911,0.0001003,53.2186,335.5591,88.69,271.4207,-0.00026501,-4.506e-05,0.0,0 STARLINK-3350,1 51105U 22005B   24227.99569836 -.00004506  00000-0 -26501-3 0  9997,2 51105  53.2186 335.5591 0001003  88.6900 271.4207 15.08866911143685,6917.798,95.436,540.357,538.969,0.0
